STARLINK-1807           
1 46706U 20073AN  26068.64914205  .00041618  00000+0  17212-2 0  9992
2 46706  53.0589 228.5688 0005019 167.7565 192.3554 15.23578372297310
TRANSPORTER-14 OBJECT AE
1 64556U 25135AE  26068.84131351  .00011742  00000+0  48719-3 0  9996
2 64556  97.4617 185.7106 0002615  72.7943 287.3580 15.24010321 39808
